{"type": "FeatureCollection", "features": [ {"type": "Feature", "properties": {"norad_id": 32289, "name": "YAOGAN-3", "group": "resource", "lat": 68.4337060384454, "lon": -12.92970751807465, "alt_km": 590.8000517201381, "timestamp": "2025-12-06T18:50:09.827404+00:00", "meta": {"OBJECT_NAME": "YAOGAN-3", "OBJECT_ID": "2007-055A", "EPOCH": "2025-12-06T07:14:24.913536", "MEAN_MOTION": 14.89812688, "ECCENTRICITY": 0.0001526, "INCLINATION": 97.8368, "RA_OF_ASC_NODE": 6.9851, "ARG_OF_PERICENTER": 77.9657, "MEAN_ANOMALY": 282.1732, "EPHEMERIS_TYPE": 0, "CLASSIFICATION_TYPE": "U", "NORAD_CAT_ID": 32289, "ELEMENT_SET_NO": 999, "REV_AT_EPOCH": 97713, "BSTAR": 0.00053385698, "MEAN_MOTION_DOT": 5.07e-05, "MEAN_MOTION_DDOT": 0}, "tle": {"line1": "1 32289U 07055A   25340.30167724  .00005070  00000+0  53386-3 0  9994", "line2": "2 32289  97.8368   6.9851 0001526  77.9657 282.1732 14.89812688977138"}}, "geometry": {"type": "Point", "coordinates": [-12.92970751807465, 68.4337060384454]}}, {"type": "Feature", "properties": {"norad_id": 32376, "name": "COSMO-SKYMED 2", "group": "resource", "lat": 26.352429037482473, "lon": -13.867306526682514, "alt_km": 621.2107683944687, "timestamp": "2025-12-06T18:50:09.827414+00:00", "meta": {"OBJECT_NAME": "COSMO-SKYMED 2", "OBJECT_ID": "2007-059A", "EPOCH": "2025-12-06T06:48:18.543744", "MEAN_MOTION": 14.82153862, "ECCENTRICITY": 0.00015321, "INCLINATION": 97.8813, "RA_OF_ASC_NODE": 161.7044, "ARG_OF_PERICENTER": 87.0541, "MEAN_ANOMALY": 273.0848, "EPHEMERIS_TYPE": 0, "CLASSIFICATION_TYPE": "U", "NORAD_CAT_ID": 32376, "ELEMENT_SET_NO": 999, "REV_AT_EPOCH": 97342, "BSTAR": 0.00015052478, "MEAN_MOTION_DOT": 1.146e-05, "MEAN_MOTION_DDOT": 0}, "tle": {"line1": "1 32376U 07059A   25340.28354796  .00001146  00000+0  15052-3 0  9997", "line2": "2 32376  97.8813 161.7044 0001532  87.0541 273.0848 14.82153862973425"}}, "geometry": {"type": "Point", "coordinates": [-13.867306526682514, 26.352429037482473]}}, {"type": "Feature", "properties": {"norad_id": 32382, "name": "RADARSAT-2", "group": "resource", "lat": 40.52700469862843, "lon": 172.87721394425935, "alt_km": 788.0498400691313, "timestamp": "2025-12-06T18:50:09.827427+00:00", "meta": {"OBJECT_NAME": "RADARSAT-2", "OBJECT_ID": "2007-061A", "EPOCH": "2025-12-06T06:26:02.456736", "MEAN_MOTION": 14.29984893, "ECCENTRICITY": 0.00010789, "INCLINATION": 98.5799, "RA_OF_ASC_NODE": 344.9523, "ARG_OF_PERICENTER": 91.3445, "MEAN_ANOMALY": 268.7861, "EPHEMERIS_TYPE": 0, "CLASSIFICATION_TYPE": "U", "NORAD_CAT_ID": 32382, "ELEMENT_SET_NO": 999, "REV_AT_EPOCH": 93838, "BSTAR": 8.3117163e-05, "MEAN_MOTION_DOT": 1.71e-06, "MEAN_MOTION_DDOT": 0}, "tle": {"line1": "1 32382U 07061A   25340.26808399  .00000171  00000+0  83117-4 0  9993", "line2": "2 32382  98.5799 344.9523 0001078  91.3445 268.7861 14.29984893938385"}}, "geometry": {"type": "Point", "coordinates": [172.87721394425935, 40.52700469862843]}}, {"type": "Feature", "properties": {"norad_id": 32783, "name": "CARTOSAT-2A", "group": "resource", "lat": 1.9775971798185292, "lon": 30.523282911458764, "alt_km": 627.4494787319709, "timestamp": "2025-12-06T18:50:09.827438+00:00", "meta": {"OBJECT_NAME": "CARTOSAT-2A", "OBJECT_ID": "2008-021A", "EPOCH": "2025-12-06T05:50:12.228576", "MEAN_MOTION": 14.78919156, "ECCENTRICITY": 0.00123007, "INCLINATION": 97.7939, "RA_OF_ASC_NODE": 30.2695, "ARG_OF_PERICENTER": 25.0657, "MEAN_ANOMALY": 335.1149, "EPHEMERIS_TYPE": 0, "CLASSIFICATION_TYPE": "U", "NORAD_CAT_ID": 32783, "ELEMENT_SET_NO": 999, "REV_AT_EPOCH": 95028, "BSTAR": 0.00024853846, "MEAN_MOTION_DOT": 1.784e-05, "MEAN_MOTION_DDOT": 0}, "tle": {"line1": "1 32783U 08021A   25340.24319709  .00001784  00000+0  24854-3 0  9998", "line2": "2 32783  97.7939  30.2695 0012300  25.0657 335.1149 14.78919156950286"}}, "geometry": {"type": "Point", "coordinates": [30.523282911458764, 1.9775971798185292]}}, {"type": "Feature", "properties": {"norad_id": 33320, "name": "HUANJING 1A (HJ-1A)", "group": "resource", "lat": 46.81034182360562, "lon": 157.56764679501867, "alt_km": 611.9928219734602, "timestamp": "2025-12-06T18:50:09.827448+00:00", "meta": {"OBJECT_NAME": "HUANJING 1A (HJ-1A)", "OBJECT_ID": "2008-041A", "EPOCH": "2025-12-06T05:17:27.103776", "MEAN_MOTION": 14.83362358, "ECCENTRICITY": 0.00205278, "INCLINATION": 97.6533, "RA_OF_ASC_NODE": 328.7913, "ARG_OF_PERICENTER": 54.8735, "MEAN_ANOMALY": 305.4399, "EPHEMERIS_TYPE": 0, "CLASSIFICATION_TYPE": "U", "NORAD_CAT_ID": 33320, "ELEMENT_SET_NO": 999, "REV_AT_EPOCH": 92979, "BSTAR": 0.00035550207, "MEAN_MOTION_DOT": 2.874e-05, "MEAN_MOTION_DDOT": 0}, "tle": {"line1": "1 33320U 08041A   25340.22045259  .00002874  00000+0  35550-3 0  9998", "line2": "2 33320  97.6533 328.7913 0020527  54.8735 305.4399 14.83362358929799"}}, "geometry": {"type": "Point", "coordinates": [157.56764679501867, 46.81034182360562]}}, {"type": "Feature", "properties": {"norad_id": 33321, "name": "HUANJING 1B (HJ-1B)", "group": "resource", "lat": 5.055027663609692, "lon": -27.635676308048335, "alt_km": 622.4552743273498, "timestamp": "2025-12-06T18:50:09.827459+00:00", "meta": {"OBJECT_NAME": "HUANJING 1B (HJ-1B)", "OBJECT_ID": "2008-041B", "EPOCH": "2025-12-06T05:51:23.936256", "MEAN_MOTION": 14.82795731, "ECCENTRICITY": 0.00382562, "INCLINATION": 97.6393, "RA_OF_ASC_NODE": 332.5278, "ARG_OF_PERICENTER": 96.3589, "MEAN_ANOMALY": 264.1984, "EPHEMERIS_TYPE": 0, "CLASSIFICATION_TYPE": "U", "NORAD_CAT_ID": 33321, "ELEMENT_SET_NO": 999, "REV_AT_EPOCH": 92981, "BSTAR": 0.00030443722, "MEAN_MOTION_DOT": 2.442e-05, "MEAN_MOTION_DDOT": 0}, "tle": {"line1": "1 33321U 08041B   25340.24402704  .00002442  00000+0  30444-3 0  9991", "line2": "2 33321  97.6393 332.5278 0038256  96.3589 264.1984 14.82795731929815"}}, "geometry": {"type": "Point", "coordinates": [-27.635676308048335, 5.055027663609692]}}, {"type": "Feature", "properties": {"norad_id": 33331, "name": "GEOEYE 1", "group": "resource", "lat": 16.753629159720763, "lon": 49.674682010271816, "alt_km": 677.7117297208733, "timestamp": "2025-12-06T18:50:09.827483+00:00", "meta": {"OBJECT_NAME": "GEOEYE 1", "OBJECT_ID": "2008-042A", "EPOCH": "2025-12-06T05:38:36.992832", "MEAN_MOTION": 14.64799305, "ECCENTRICITY": 0.00028713, "INCLINATION": 98.126, "RA_OF_ASC_NODE": 51.597, "ARG_OF_PERICENTER": 305.4477, "MEAN_ANOMALY": 54.6458, "EPHEMERIS_TYPE": 0, "CLASSIFICATION_TYPE": "U", "NORAD_CAT_ID": 33331, "ELEMENT_SET_NO": 999, "REV_AT_EPOCH": 92190, "BSTAR": 0.00024794536, "MEAN_MOTION_DOT": 1.275e-05, "MEAN_MOTION_DDOT": 0}, "tle": {"line1": "1 33331U 08042A   25340.23515038  .00001275  00000+0  24795-3 0  9992", "line2": "2 33331  98.1260  51.5970 0002871 305.4477  54.6458 14.64799305921907"}}, "geometry": {"type": "Point", "coordinates": [49.674682010271816, 16.753629159720763]}}, {"type": "Feature", "properties": {"norad_id": 33396, "name": "THEOS", "group": "resource", "lat": 67.56488435435217, "lon": -119.48127642715474, "alt_km": 817.6506157213416, "timestamp": "2025-12-06T18:50:09.827496+00:00", "meta": {"OBJECT_NAME": "THEOS", "OBJECT_ID": "2008-049A", "EPOCH": "2025-12-06T06:28:46.236576", "MEAN_MOTION": 14.20094427, "ECCENTRICITY": 0.0001105, "INCLINATION": 98.5878, "RA_OF_ASC_NODE": 38.5503, "ARG_OF_PERICENTER": 99.9368, "MEAN_ANOMALY": 260.1933, "EPHEMERIS_TYPE": 0, "CLASSIFICATION_TYPE": "U", "NORAD_CAT_ID": 33396, "ELEMENT_SET_NO": 999, "REV_AT_EPOCH": 89058, "BSTAR": 0.00010420714, "MEAN_MOTION_DOT": 1.79e-06, "MEAN_MOTION_DDOT": 0}, "tle": {"line1": "1 33396U 08049A   25340.26997959  .00000179  00000+0  10421-3 0  9992", "line2": "2 33396  98.5878  38.5503 0001105  99.9368 260.1933 14.20094427890583"}}, "geometry": {"type": "Point", "coordinates": [-119.48127642715474, 67.56488435435217]}}, {"type": "Feature", "properties": {"norad_id": 33412, "name": "COSMO-SKYMED 3", "group": "resource", "lat": 5.675853051320818, "lon": 11.861467928957941, "alt_km": 542.7624470688233, "timestamp": "2025-12-06T18:50:09.827506+00:00", "meta": {"OBJECT_NAME": "COSMO-SKYMED 3", "OBJECT_ID": "2008-054A", "EPOCH": "2025-12-06T06:53:47.570496", "MEAN_MOTION": 15.05259743, "ECCENTRICITY": 0.00156683, "INCLINATION": 97.8456, "RA_OF_ASC_NODE": 190.5707, "ARG_OF_PERICENTER": 195.8021, "MEAN_ANOMALY": 164.2718, "EPHEMERIS_TYPE": 0, "CLASSIFICATION_TYPE": "U", "NORAD_CAT_ID": 33412, "ELEMENT_SET_NO": 999, "REV_AT_EPOCH": 92790, "BSTAR": 0.00058708062, "MEAN_MOTION_DOT": 8.351e-05, "MEAN_MOTION_DDOT": 0}, "tle": {"line1": "1 33412U 08054A   25340.28735614  .00008351  00000+0  58708-3 0  9997", "line2": "2 33412  97.8456 190.5707 0015668 195.8021 164.2718 15.05259743927902"}}, "geometry": {"type": "Point", "coordinates": [11.861467928957941, 5.675853051320818]}}, {"type": "Feature", "properties": {"norad_id": 33446, "name": "YAOGAN-4", "group": "resource", "lat": -77.26706612001556, "lon": -51.041470169038504, "alt_km": 623.8549904703596, "timestamp": "2025-12-06T18:50:09.827517+00:00", "meta": {"OBJECT_NAME": "YAOGAN-4", "OBJECT_ID": "2008-061A", "EPOCH": "2025-12-06T06:14:16.558368", "MEAN_MOTION": 14.82651246, "ECCENTRICITY": 0.00141606, "INCLINATION": 97.9175, "RA_OF_ASC_NODE": 270.423, "ARG_OF_PERICENTER": 345.1979, "MEAN_ANOMALY": 14.8818, "EPHEMERIS_TYPE": 0, "CLASSIFICATION_TYPE": "U", "NORAD_CAT_ID": 33446, "ELEMENT_SET_NO": 999, "REV_AT_EPOCH": 91707, "BSTAR": 0.00037016546, "MEAN_MOTION_DOT": 2.935e-05, "MEAN_MOTION_DDOT": 0}, "tle": {"line1": "1 33446U 08061A   25340.25991387  .00002935  00000+0  37017-3 0  9992", "line2": "2 33446  97.9175 270.4230 0014160 345.1979  14.8818 14.82651246917071"}}, "geometry": {"type": "Point", "coordinates": [-51.041470169038504, -77.26706612001556]}}]}